LEDSAT                  
1 49069U 21073D   24216.73567816  .00023401  00000+0  88634-3 0  9990
2 49069  97.4356 287.6017 0019751 116.4946 243.8321 15.26726445163701
ROBUSTA-1F (MTCUBE 2)   
1 53109U 22080E   24216.25228725 -.00000003  00000+0  00000+0 0  9990
2 53109  70.1226 175.7576 0007797  77.6563 282.4969  6.42584338 48184
SITRO-AIS 5 (KATYS)     
1 57176U 23091L   24216.83725997  .00012360  00000+0  77394-3 0  9990
2 57176  97.6092 268.6316 0016094 321.7783  38.2304 15.09417064 60681
SITRO-AIS 6 (CHIRKIN)   
1 57192U 23091AC  24216.82056633  .00011632  00000+0  72757-3 0  9990
2 57192  97.6097 268.6427 0015827 321.9675  38.0435 15.09476799 60685
SITRO-AIS 8 (ANOKHIN)   
1 57193U 23091AD  24216.84373737  .00012048  00000+0  74560-3 0  9996
2 57193  97.6088 268.7567 0015580 322.5759  37.4384 15.09858504 60693
SITRO-AIS 7 (FARTUSHNIY)
1 57194U 23091AE  24216.82706164  .00011483  00000+0  71942-3 0  9992
2 57194  97.6093 268.6268 0015773 322.4939  37.5188 15.09421092 60680
SITRO-AIS 10 (BURDAEV)  
1 57199U 23091AK  24216.88836845  .00013799  00000+0  81114-3 0  9997
2 57199  97.6110 269.8468 0010544 310.0826  49.9479 15.11751448 60762
SITRO-AIS 9 (SHCHUKIN)  
1 57201U 23091AM  24216.82107119  .00013267  00000+0  78064-3 0  9990
2 57201  97.6105 269.7563 0010498 310.3149  49.7163 15.11726414 60756
SITRO-AIS 12 (SMIRENNIY)
1 57204U 23091AQ  24216.84369324  .00013375  00000+0  78275-3 0  9997
2 57204  97.6109 269.9291 0010473 303.0971  56.9253 15.11920044 60764
SITRO-AIS 11 (SHEFFER)  
1 57208U 23091AU  24216.82665951  .00014219  00000+0  82960-3 0  9998
2 57208  97.6111 269.9397 0010298 303.7815  56.2434 15.12016806 60764
ROBUSTA-1E (ENSO)       
1 58470U 23185J   24216.86560008  .00025582  00000+0  10203-2 0  9990
2 58470  97.4241 283.1350 0013468 112.2336 248.0332 15.25087225 37408
SITRO-AIS 29            
1 59052U 24039B   24216.86898055  .00034781  00000+0  11777-2 0  9990
2 59052  97.3934 178.5667 0018895  56.1850 304.1187 15.30332407 23887
SITRO-AIS 30            
1 59053U 24039C   24216.87056792  .00032727  00000+0  11117-2 0  9992
2 59053  97.3933 178.5598 0019060  56.7450 303.5613 15.30238111 23870
SITRO-AIS 31            
1 59054U 24039D   24216.85953364  .00035450  00000+0  11977-2 0  9992
2 59054  97.3933 178.5754 0018895  56.6587 303.6460 15.30399799 23893
SITRO-AIS 33            
1 59055U 24039E   24216.84725212  .00035102  00000+0  11809-2 0  9999
2 59055  97.3937 178.5983 0018658  57.4591 302.8449 15.30543843 23881
SITRO-AIS 35            
1 59056U 24039F   24216.84295571  .00034595  00000+0  11625-2 0  9991
2 59056  97.3935 178.6007 0018440  57.8257 302.4770 15.30588405 23886
SITRO-AIS 32            
1 59057U 24039G   24216.85330576  .00034717  00000+0  11725-2 0  9995
2 59057  97.3936 178.5891 0018541  57.8287 302.4749 15.30422616 23880
SITRO-AIS 34            
1 59058U 24039H   24216.84798240  .00035324  00000+0  11899-2 0  9998
2 59058  97.3937 178.5988 0018688  57.6307 302.6739 15.30500979 23882
SITRO-AIS 36            
1 59059U 24039J   24216.83671115  .00035989  00000+0  12076-2 0  9994
2 59059  97.3936 178.6093 0018308  57.9372 302.3644 15.30629122 23888
SITRO-AIS 49            
1 59060U 24039K   24216.83811201  .00032846  00000+0  11056-2 0  9994
2 59060  97.3937 178.6077 0018327  57.5150 302.7859 15.30547140 23885
SITRO-AIS 50            
1 59061U 24039L   24216.88991840  .00035800  00000+0  11961-2 0  9996
2 59061  97.3937 178.6891 0018223  57.6881 302.6121 15.30771397 23892
SITRO-AIS 51            
1 59062U 24039M   24216.88984429  .00034493  00000+0  11533-2 0  9994
2 59062  97.3936 178.6899 0018239  57.4254 302.8745 15.30754953 23892
SITRO-AIS 52            
1 59063U 24039N   24216.88083412  .00035067  00000+0  11679-2 0  9996
2 59063  97.3936 178.7036 0018126  57.6633 302.6360 15.30879812 23898
SITRO-AIS 25            
1 59066U 24039R   24216.84188728  .00005840  00000+0  55332-3 0  9992
2 59066  95.4009 129.6523 0170298 178.2785 181.9059 14.83397367 23175
SITRO-AIS 26            
1 59067U 24039S   24216.84245286  .00005708  00000+0  54161-3 0  9998
2 59067  95.4009 129.6509 0170213 178.3127 181.8705 14.83361407 23171
SITRO-AIS 27            
1 59068U 24039T   24216.82779004  .00005560  00000+0  52574-3 0  9999
2 59068  95.4011 129.6684 0169821 178.1483 182.0405 14.83539312 23177
SITRO-AIS 28            
1 59071U 24039U   24216.82389394  .00005459  00000+0  51587-3 0  9992
2 59071  95.4012 129.6735 0169671 178.1246 182.0649 14.83582408 23173
GRBBETA                 
1 60237U 24128C   24216.57792558  .00005325  00000+0  47560-3 0  9997
2 60237  61.9945  76.1141 0011093 300.5634  59.4359 14.97064932  3697
OOV-CUBE                
1 60240U 24128F   24216.58715635  .00003809  00000+0  35035-3 0  9992
2 60240  61.9981  76.1708 0010474 284.5610  75.4316 14.96467899  3708
ROBUSTA-3A (MEDITERRAN*)
1 60243U 24128J   24216.59673530  .00007680  00000+0  69669-3 0  9994
2 60243  61.9922  76.1905 0012781 272.4803  87.4821 14.95989504  3703
BEIJING 1               
1 28890U 05043A   24216.84906093  .00000810  00000+0  16930-3 0  9993
2 28890  98.2054 339.3748 0013662 255.9733 103.9950 14.62426014   867
HUANJING 1A (HJ-1A)     
1 33320U 08041A   24216.89290337  .00003131  00000+0  41700-3 0  9992
2 33320  97.6316 221.5584 0019396 211.1824 148.8240 14.80211151857415
HUANJING 1B (HJ-1B)     
1 33321U 08041B   24216.88816301  .00002113  00000+0  27989-3 0  9999
2 33321  97.6263 226.0815 0036587 259.5874 100.1214 14.80448729857433
YAOGAN-4                
1 33446U 08061A   24216.82576395  .00002398  00000+0  32293-3 0  9998
2 33446  97.8789 147.8084 0016345 127.2218 233.0489 14.80023132844609
DEIMOS-1                
1 35681U 09041A   24216.80190143  .00001278  00000+0  20410-3 0  9995
2 35681  97.6820  36.1781 0000899 159.9559 200.1685 14.73444830806321
UK-DMC 2                
1 35683U 09041C   24216.87682407  .00001890  00000+0  29818-3 0  9994
2 35683  97.7874   2.5781 0001154  86.0519 274.0821 14.73493536806038
DMC3-FM1                
1 40715U 15032A   24216.91062385  .00001456  00000+0  18183-3 0  9996
2 40715  97.7433  94.4155 0006862 127.4038 232.7802 14.83817835488650
DMC3-FM2                
1 40716U 15032B   24216.79839819  .00001444  00000+0  18031-3 0  9996
2 40716  97.7486  95.4080 0008659 133.7792 226.4140 14.83824829488634
DMC3-FM3                
1 40717U 15032C   24216.82588053  .00001427  00000+0  17869-3 0  9991
2 40717  97.7535  96.7330 0010170 132.2995 227.9083 14.83732311488649
NOAA 15                 
1 25338U 98030A   24216.78849623  .00000400  00000+0  18310-3 0  9992
2 25338  98.5671 242.9181 0010345 178.9713 181.1491 14.26646163364226
DMSP 5D-3 F16 (USA 172) 
1 28054U 03048A   24216.84818213  .00000268  00000+0  16514-3 0  9999
2 28054  99.0217 223.7650 0006189 280.3807 179.5214 14.14061995 73016
NOAA 18                 
1 28654U 05018A   24216.85530253  .00000373  00000+0  22279-3 0  9992
2 28654  98.8731 293.4228 0013130 289.1720  70.8031 14.13269394989995
METEOSAT-9 (MSG-2)      
1 28912U 05049B   24216.67731720  .00000113  00000+0  00000+0 0  9991
2 28912   7.7931  60.4631 0000531 347.7047 194.0601  1.00274654 68231
EWS-G1 (GOES 13)        
1 29155U 06018A   24215.69563102 -.00000019  00000+0  00000+0 0  9992
2 29155   2.7445  84.7538 0075066 255.8568 252.0179  0.99021255 66623
DMSP 5D-3 F17 (USA 191) 
1 29522U 06050A   24216.86250151  .00000293  00000+0  17529-3 0  9994
2 29522  98.7444 226.4556 0009644 197.4601 162.6242 14.14513499915930
FENGYUN 3A              
1 32958U 08026A   24216.83589149  .00000281  00000+0  15479-3 0  9994
2 32958  98.6057 162.5839 0007685 299.9506  60.0907 14.19135188838714
NOAA 19                 
1 33591U 09005A   24216.88435097  .00000365  00000+0  21969-3 0  9997
2 33591  99.0443 273.1816 0014371 154.3068 205.8820 14.13063677798369
GOES 14                 
1 35491U 09033A   24216.54403456 -.00000077  00000+0  00000+0 0  9996
2 35491   0.4470  99.7062 0003464  26.7373 273.5412  1.00272441 55260
DMSP 5D-3 F18 (USA 210) 
1 35951U 09057A   24216.88049811  .00000543  00000+0  30739-3 0  9994
2 35951  98.8170 191.5975 0011950  36.3581 323.8402 14.14188734763107
EWS-G2 (GOES 15)        
1 36411U 10008A   24216.53737499  .00000025  00000+0  00000+0 0  9991
2 36411   0.4896 274.5664 0005322 285.1781   7.7310  1.00280818 52791
COMS 1                  
1 36744U 10032A   24216.83682446 -.00000357  00000+0  00000+0 0  9990
2 36744   3.0656  83.8438 0000643  54.6089 243.8082  1.00273052 51817
FENGYUN 3B              
1 37214U 10059A   24216.81098260  .00000198  00000+0  12721-3 0  9994
2 37214  99.0533 245.5639 0021446 320.3121  93.6770 14.14530403710983
SUOMI NPP               
1 37849U 11061A   24216.83146793  .00000174  00000+0  10343-3 0  9991
2 37849  98.7223 154.0975 0001897 102.5279 257.6110 14.19538940661623
FENGYUN 2F              
1 38049U 12002A   24213.54250280 -.00000368  00000+0  00000+0 0  9993
2 38049   5.7014  72.6875 0002215 131.5126  52.4734  1.00260092 46002
METEOSAT-10 (MSG-3)     
1 38552U 12035B   24216.59672441 -.00000017  00000+0  00000+0 0  9994
2 38552   3.0700  61.2947 0000465 207.1872 259.1114  1.00275732 44015
METOP-B                 
1 38771U 12049A   24216.82732061  .00000278  00000+0  14668-3 0  9990
2 38771  98.6251 272.9728 0000961  84.8839 275.2448 14.21461135616319
INSAT-3D                
1 39216U 13038B   24216.89412009 -.00000345  00000+0  00000+0 0  9995
2 39216   0.1545  94.7970 0001469 107.3933 196.3694  1.00556248 40463
FENGYUN 3C              
1 39260U 13052A   24216.85575349  .00000224  00000+0  13379-3 0  9995
2 39260  98.4305 213.9395 0010907 183.0858 177.0251 14.16240873562072
